<?xml version="1.0" encoding="UTF-8"?>
<ndm xmlns:xsi="http://www.w3.org/2001/XMLSchema-instance" xsi:noNamespaceSchemaLocation="https://sanaregistry.org/r/ndmxml_unqualified/ndmxml-2.0.0-master-2.0.xsd">
<omm id="CCSDS_OMM_VERS" version="2.0">
<header><CREATION_DATE/><ORIGINATOR/></header><body><segment><metadata><OBJECT_NAME>IRIDIUM 106</OBJECT_NAME><OBJECT_ID>2017-003A</OBJECT_ID><CENTER_NAME>EARTH</CENTER_NAME><REF_FRAME>TEME</REF_FRAME><TIME_SYSTEM>UTC</TIME_SYSTEM><MEAN_ELEMENT_THEORY>SGP4</MEAN_ELEMENT_THEORY></metadata><data><meanElements><EPOCH>2026-01-09T15:37:42.223296</EPOCH><MEAN_MOTION>14.34218891</MEAN_MOTION><ECCENTRICITY>.00023444</ECCENTRICITY><INCLINATION>86.4007</INCLINATION><RA_OF_ASC_NODE>154.8022</RA_OF_ASC_NODE><ARG_OF_PERICENTER>87.1949</ARG_OF_PERICENTER><MEAN_ANOMALY>272.9515</MEAN_ANOMALY></meanElements><tleParameters><EPHEMERIS_TYPE>0</EPHEMERIS_TYPE><CLASSIFICATION_TYPE>U</CLASSIFICATION_TYPE><NORAD_CAT_ID>41917</NORAD_CAT_ID><ELEMENT_SET_NO>999</ELEMENT_SET_NO><REV_AT_EPOCH>47048</REV_AT_EPOCH><BSTAR>.68898375E-4</BSTAR><MEAN_MOTION_DOT>.213E-5</MEAN_MOTION_DOT><MEAN_MOTION_DDOT>0</MEAN_MOTION_DDOT></tleParameters></data></segment></body></omm>
<omm id="CCSDS_OMM_VERS" version="2.0">
<header><CREATION_DATE/><ORIGINATOR/></header><body><segment><metadata><OBJECT_NAME>IRIDIUM 103</OBJECT_NAME><OBJECT_ID>2017-003B</OBJECT_ID><CENTER_NAME>EARTH</CENTER_NAME><REF_FRAME>TEME</REF_FRAME><TIME_SYSTEM>UTC</TIME_SYSTEM><MEAN_ELEMENT_THEORY>SGP4</MEAN_ELEMENT_THEORY></metadata><data><meanElements><EPOCH>2026-01-09T10:18:02.302848</EPOCH><MEAN_MOTION>14.34217697</MEAN_MOTION><ECCENTRICITY>.00022853</ECCENTRICITY><INCLINATION>86.4005</INCLINATION><RA_OF_ASC_NODE>154.7951</RA_OF_ASC_NODE><ARG_OF_PERICENTER>104.2056</ARG_OF_PERICENTER><MEAN_ANOMALY>255.9394</MEAN_ANOMALY></meanElements><tleParameters><EPHEMERIS_TYPE>0</EPHEMERIS_TYPE><CLASSIFICATION_TYPE>U</CLASSIFICATION_TYPE><NORAD_CAT_ID>41918</NORAD_CAT_ID><ELEMENT_SET_NO>999</ELEMENT_SET_NO><REV_AT_EPOCH>47047</REV_AT_EPOCH><BSTAR>.28088172E-4</BSTAR><MEAN_MOTION_DOT>.98E-6</MEAN_MOTION_DOT><MEAN_MOTION_DDOT>0</MEAN_MOTION_DDOT></tleParameters></data></segment></body></omm>
<omm id="CCSDS_OMM_VERS" version="2.0">
<header><CREATION_DATE/><ORIGINATOR/></header><body><segment><metadata><OBJECT_NAME>IRIDIUM 109</OBJECT_NAME><OBJECT_ID>2017-003C</OBJECT_ID><CENTER_NAME>EARTH</CENTER_NAME><REF_FRAME>TEME</REF_FRAME><TIME_SYSTEM>UTC</TIME_SYSTEM><MEAN_ELEMENT_THEORY>SGP4</MEAN_ELEMENT_THEORY></metadata><data><meanElements><EPOCH>2026-01-09T15:28:34.217472</EPOCH><MEAN_MOTION>14.34218228</MEAN_MOTION><ECCENTRICITY>.00020194</ECCENTRICITY><INCLINATION>86.4007</INCLINATION><RA_OF_ASC_NODE>154.7620</RA_OF_ASC_NODE><ARG_OF_PERICENTER>96.3272</ARG_OF_PERICENTER><MEAN_ANOMALY>263.8153</MEAN_ANOMALY></meanElements><tleParameters><EPHEMERIS_TYPE>0</EPHEMERIS_TYPE><CLASSIFICATION_TYPE>U</CLASSIFICATION_TYPE><NORAD_CAT_ID>41919</NORAD_CAT_ID><ELEMENT_SET_NO>999</ELEMENT_SET_NO><REV_AT_EPOCH>47047</REV_AT_EPOCH><BSTAR>.69428718E-4</BSTAR><MEAN_MOTION_DOT>.214E-5</MEAN_MOTION_DOT><MEAN_MOTION_DDOT>0</MEAN_MOTION_DDOT></tleParameters></data></segment></body></omm>
<omm id="CCSDS_OMM_VERS" version="2.0">
<header><CREATION_DATE/><ORIGINATOR/></header><body><segment><metadata><OBJECT_NAME>IRIDIUM 102</OBJECT_NAME><OBJECT_ID>2017-003D</OBJECT_ID><CENTER_NAME>EARTH</CENTER_NAME><REF_FRAME>TEME</REF_FRAME><TIME_SYSTEM>UTC</TIME_SYSTEM><MEAN_ELEMENT_THEORY>SGP4</MEAN_ELEMENT_THEORY></metadata><data><meanElements><EPOCH>2026-01-09T11:21:57.734496</EPOCH><MEAN_MOTION>14.34216829</MEAN_MOTION><ECCENTRICITY>.00019256</ECCENTRICITY><INCLINATION>86.4006</INCLINATION><RA_OF_ASC_NODE>154.7605</RA_OF_ASC_NODE><ARG_OF_PERICENTER>95.2286</ARG_OF_PERICENTER><MEAN_ANOMALY>264.9129</MEAN_ANOMALY></meanElements><tleParameters><EPHEMERIS_TYPE>0</EPHEMERIS_TYPE><CLASSIFICATION_TYPE>U</CLASSIFICATION_TYPE><NORAD_CAT_ID>41920</NORAD_CAT_ID><ELEMENT_SET_NO>999</ELEMENT_SET_NO><REV_AT_EPOCH>47053</REV_AT_EPOCH><BSTAR>.16216363E-3</BSTAR><MEAN_MOTION_DOT>.474E-5</MEAN_MOTION_DOT><MEAN_MOTION_DDOT>0</MEAN_MOTION_DDOT></tleParameters></data></segment></body></omm>
<omm id="CCSDS_OMM_VERS" version="2.0">
<header><CREATION_DATE/><ORIGINATOR/></header><body><segment><metadata><OBJECT_NAME>IRIDIUM 105</OBJECT_NAME><OBJECT_ID>2017-003E</OBJECT_ID><CENTER_NAME>EARTH</CENTER_NAME><REF_FRAME>TEME</REF_FRAME><TIME_SYSTEM>UTC</TIME_SYSTEM><MEAN_ELEMENT_THEORY>SGP4</MEAN_ELEMENT_THEORY></metadata><data><meanElements><EPOCH>2026-01-09T14:00:43.380288</EPOCH><MEAN_MOTION>14.34212728</MEAN_MOTION><ECCENTRICITY>.00020776</ECCENTRICITY><INCLINATION>86.3994</INCLINATION><RA_OF_ASC_NODE>123.2035</RA_OF_ASC_NODE><ARG_OF_PERICENTER>96.8674</ARG_OF_PERICENTER><MEAN_ANOMALY>263.2758</MEAN_ANOMALY></meanElements><tleParameters><EPHEMERIS_TYPE>0</EPHEMERIS_TYPE><CLASSIFICATION_TYPE>U</CLASSIFICATION_TYPE><NORAD_CAT_ID>41921</NORAD_CAT_ID><ELEMENT_SET_NO>999</ELEMENT_SET_NO><REV_AT_EPOCH>47240</REV_AT_EPOCH><BSTAR>.11255399E-3</BSTAR><MEAN_MOTION_DOT>.335E-5</MEAN_MOTION_DOT><MEAN_MOTION_DDOT>0</MEAN_MOTION_DDOT></tleParameters></data></segment></body></omm>
<omm id="CCSDS_OMM_VERS" version="2.0">
<header><CREATION_DATE/><ORIGINATOR/></header><body><segment><metadata><OBJECT_NAME>IRIDIUM 104</OBJECT_NAME><OBJECT_ID>2017-003F</OBJECT_ID><CENTER_NAME>EARTH</CENTER_NAME><REF_FRAME>TEME</REF_FRAME><TIME_SYSTEM>UTC</TIME_SYSTEM><MEAN_ELEMENT_THEORY>SGP4</MEAN_ELEMENT_THEORY></metadata><data><meanElements><EPOCH>2026-01-09T15:01:10.220736</EPOCH><MEAN_MOTION>14.34217808</MEAN_MOTION><ECCENTRICITY>.00019036</ECCENTRICITY><INCLINATION>86.4007</INCLINATION><RA_OF_ASC_NODE>154.7370</RA_OF_ASC_NODE><ARG_OF_PERICENTER>105.3032</ARG_OF_PERICENTER><MEAN_ANOMALY>254.8375</MEAN_ANOMALY></meanElements><tleParameters><EPHEMERIS_TYPE>0</EPHEMERIS_TYPE><CLASSIFICATION_TYPE>U</CLASSIFICATION_TYPE><NORAD_CAT_ID>41922</NORAD_CAT_ID><ELEMENT_SET_NO>999</ELEMENT_SET_NO><REV_AT_EPOCH>47054</REV_AT_EPOCH><BSTAR>.16608091E-4</BSTAR><MEAN_MOTION_DOT>.66E-6</MEAN_MOTION_DOT><MEAN_MOTION_DDOT>0</MEAN_MOTION_DDOT></tleParameters></data></segment></body></omm>
<omm id="CCSDS_OMM_VERS" version="2.0">
<header><CREATION_DATE/><ORIGINATOR/></header><body><segment><metadata><OBJECT_NAME>IRIDIUM 114</OBJECT_NAME><OBJECT_ID>2017-003G</OBJECT_ID><CENTER_NAME>EARTH</CENTER_NAME><REF_FRAME>TEME</REF_FRAME><TIME_SYSTEM>UTC</TIME_SYSTEM><MEAN_ELEMENT_THEORY>SGP4</MEAN_ELEMENT_THEORY></metadata><data><meanElements><EPOCH>2026-01-09T11:49:22.210752</EPOCH><MEAN_MOTION>14.34218342</MEAN_MOTION><ECCENTRICITY>.00019731</ECCENTRICITY><INCLINATION>86.4006</INCLINATION><RA_OF_ASC_NODE>154.7765</RA_OF_ASC_NODE><ARG_OF_PERICENTER>100.7348</ARG_OF_PERICENTER><MEAN_ANOMALY>259.4070</MEAN_ANOMALY></meanElements><tleParameters><EPHEMERIS_TYPE>0</EPHEMERIS_TYPE><CLASSIFICATION_TYPE>U</CLASSIFICATION_TYPE><NORAD_CAT_ID>41923</NORAD_CAT_ID><ELEMENT_SET_NO>999</ELEMENT_SET_NO><REV_AT_EPOCH>47050</REV_AT_EPOCH><BSTAR>.71228256E-4</BSTAR><MEAN_MOTION_DOT>.219E-5</MEAN_MOTION_DOT><MEAN_MOTION_DDOT>0</MEAN_MOTION_DDOT></tleParameters></data></segment></body></omm>
<omm id="CCSDS_OMM_VERS" version="2.0">
<header><CREATION_DATE/><ORIGINATOR/></header><body><segment><metadata><OBJECT_NAME>IRIDIUM 108</OBJECT_NAME><OBJECT_ID>2017-003H</OBJECT_ID><CENTER_NAME>EARTH</CENTER_NAME><REF_FRAME>TEME</REF_FRAME><TIME_SYSTEM>UTC</TIME_SYSTEM><MEAN_ELEMENT_THEORY>SGP4</MEAN_ELEMENT_THEORY></metadata><data><meanElements><EPOCH>2026-01-09T09:09:10.456992</EPOCH><MEAN_MOTION>14.34217744</MEAN_MOTION><ECCENTRICITY>.00018263</ECCENTRICITY><INCLINATION>86.3991</INCLINATION><RA_OF_ASC_NODE>123.1763</RA_OF_ASC_NODE><ARG_OF_PERICENTER>93.0013</ARG_OF_PERICENTER><MEAN_ANOMALY>267.1392</MEAN_ANOMALY></meanElements><tleParameters><EPHEMERIS_TYPE>0</EPHEMERIS_TYPE><CLASSIFICATION_TYPE>U</CLASSIFICATION_TYPE><NORAD_CAT_ID>41924</NORAD_CAT_ID><ELEMENT_SET_NO>999</ELEMENT_SET_NO><REV_AT_EPOCH>47234</REV_AT_EPOCH><BSTAR>-.28496683E-4</BSTAR><MEAN_MOTION_DOT>-.6E-6</MEAN_MOTION_DOT><MEAN_MOTION_DDOT>0</MEAN_MOTION_DDOT></tleParameters></data></segment></body></omm>

</ndm>
