IRIDIUM 106             
1 41917U 17003A   26009.65118314  .00000213  00000+0  68898-4 0  9997
2 41917  86.4007 154.8022 0002344  87.1949 272.9515 14.34218891470487
IRIDIUM 103             
1 41918U 17003B   26009.42919332  .00000098  00000+0  28088-4 0  9990
2 41918  86.4005 154.7951 0002285 104.2056 255.9394 14.34217697470478
IRIDIUM 109             
1 41919U 17003C   26009.64484048  .00000214  00000+0  69429-4 0  9990
2 41919  86.4007 154.7620 0002019  96.3272 263.8153 14.34218228470472
IRIDIUM 102             
1 41920U 17003D   26009.47358489  .00000474  00000+0  16216-3 0  9995
2 41920  86.4006 154.7605 0001925  95.2286 264.9129 14.34216829470531
IRIDIUM 105             
1 41921U 17003E   26009.58383542  .00000335  00000+0  11255-3 0  9990
2 41921  86.3994 123.2035 0002077  96.8674 263.2758 14.34212728472404
IRIDIUM 104             
1 41922U 17003F   26009.62581274  .00000066  00000+0  16608-4 0  9997
2 41922  86.4007 154.7370 0001903 105.3032 254.8375 14.34217808470541
IRIDIUM 114             
1 41923U 17003G   26009.49261818  .00000219  00000+0  71228-4 0  9991
2 41923  86.4006 154.7765 0001973 100.7348 259.4070 14.34218342470508
IRIDIUM 108             
1 41924U 17003H   26009.38137103 -.00000060  00000+0 -28497-4 0  9995
2 41924  86.3991 123.1763 0001826  93.0013 267.1392 14.34217744472341
